O3B FM17                
1 44114U 19020C   26117.14719065 -.00000027  00000+0  00000+0 0  9994
2 44114   0.0341 355.3108 0002611  37.9230 326.7813  5.00115502128979
O3B FM18                
1 44115U 19020D   26116.89361250 -.00000027  00000+0  00000+0 0  9995
2 44115   0.0537   1.4716 0002732  36.1801 322.3660  5.00115252129087
SES-17                  
1 49332U 21095A   26117.19141821 -.00000282  00000+0  00000+0 0  9993
2 49332   0.0431  47.2792 0000985 342.2973 187.4188  1.00270326 17347
SES-22                  
1 52933U 22071A   26117.16850116  .00000094  00000+0  00000+0 0  9990
2 52933   0.0203 273.6155 0001028 119.2051 103.9973  1.00274145  7012
SES-20                  
1 53960U 22123A   26117.01155927  .00000000  00000+0  00000+0 0  9998
2 53960   0.0221 101.3070 0002023 321.8701  52.8977  1.00269832 13026
SES-21                  
1 53961U 22123B   26117.09996175  .00000059  00000+0  00000+0 0  9999
2 53961   0.0220  66.4488 0001370 315.4888  98.1693  1.00271477  6702
O3B MPOWER F1           
1 54755U 22174A   26116.94996102 -.00000027  00000+0  00000+0 0  9996
2 54755   0.0597 347.2739 0005896  65.6164 268.3717  5.00114858 62790
O3B MPOWER F2           
1 54756U 22174B   26116.93811350 -.00000027  00000+0  00000+0 0  9997
2 54756   0.0562 344.9430 0005939  48.8998 326.1936  5.00115355 62879
SES-18                  
1 55970U 23038A   26117.01155927  .00000000  00000+0  00000+0 0  9997
2 55970   0.0198 252.0815 0001338  89.4860 134.4938  1.00269410 11590
SES-19                  
1 55971U 23038B   26117.19966600  .00000078  00000+0  00000+0 0  9990
2 55971   0.0209 285.7854 0001569 103.1091 123.2724  1.00271297 11580
O3B MPOWER F4           
1 56367U 23059A   26117.20231875 -.00000027  00000+0  00000+0 0  9999
2 56367   0.0649   2.4951 0007267  45.5502 312.0153  5.00115878 56058
O3B MPOWER F3           
1 56368U 23059B   26117.03569700 -.00000027  00000+0  00000+0 0  9992
2 56368   0.0660   2.2345 0006656  35.9779 321.8335  5.00116644 52167
O3B MPOWER F5           
1 58346U 23175A   26116.93653082 -.00000027  00000+0  00000+0 0  9994
2 58346   0.0448  11.8153 0004479  36.2481 311.9734  5.00115551 46866
O3B MPOWER F6           
1 58347U 23175B   26116.83730711 -.00000027  00000+0  00000+0 0  9999
2 58347   0.0514   6.1687 0004698  20.4235 333.4304  5.00116208 45787
ASTRA 1P (SES-24)       
1 60086U 24115A   26116.99693453  .00000110  00000+0  00000+0 0  9997
2 60086   0.0821  43.3286 0003330 280.3888 269.3719  1.00280132  6689
O3B MPOWER F7           
1 62362U 24244A   26116.70369539 -.00000027  00000+0  00000+0 0  9991
2 62362   0.0717 358.0196 0006076  35.3481 326.6691  5.00115126 23954
O3B MPOWER F8           
1 62363U 24244B   26117.07041905 -.00000027  00000+0  00000+0 0  9997
2 62363   0.0325 314.8944 0006292  71.9777 333.1591  5.00115425 18313
